[{"OBJECT_NAME":"ONEWEB-0503","OBJECT_ID":"2022-138J","EPOCH":"2025-07-31T21:22:42.076992","MEAN_MOTION":13.19726116,"ECCENTRICITY":0.0001986,"INCLINATION":87.9234,"RA_OF_ASC_NODE":8.6103,"ARG_OF_PERICENTER":102.8814,"MEAN_ANOMALY":257.254,"EPHEMERIS_TYPE":0,"CLASSIFICATION_TYPE":"U","NORAD_CAT_ID":54121,"ELEMENT_SET_NO":999,"REV_AT_EPOCH":13457,"BSTAR":-9.0905e-6,"MEAN_MOTION_DOT":9.0e-8,"MEAN_MOTION_DDOT":0},{"OBJECT_NAME":"ONEWEB-0504","OBJECT_ID":"2022-138K","EPOCH":"2025-07-31T21:04:30.950400","MEAN_MOTION":13.19725328,"ECCENTRICITY":0.0002157,"INCLINATION":87.9236,"RA_OF_ASC_NODE":8.6284,"ARG_OF_PERICENTER":94.399,"MEAN_ANOMALY":265.7389,"EPHEMERIS_TYPE":0,"CLASSIFICATION_TYPE":"U","NORAD_CAT_ID":54122,"ELEMENT_SET_NO":999,"REV_AT_EPOCH":13458,"BSTAR":-7.6943e-5,"MEAN_MOTION_DOT":-1.8e-7,"MEAN_MOTION_DDOT":0},{"OBJECT_NAME":"ONEWEB-0505","OBJECT_ID":"2022-138L","EPOCH":"2025-07-31T22:49:06.737088","MEAN_MOTION":13.19723879,"ECCENTRICITY":0.0002374,"INCLINATION":87.9235,"RA_OF_ASC_NODE":8.6031,"ARG_OF_PERICENTER":88.2153,"MEAN_ANOMALY":271.9251,"EPHEMERIS_TYPE":0,"CLASSIFICATION_TYPE":"U","NORAD_CAT_ID":54123,"ELEMENT_SET_NO":999,"REV_AT_EPOCH":13544,"BSTAR":7.3018e-5,"MEAN_MOTION_DOT":4.2e-7,"MEAN_MOTION_DDOT":0},{"OBJECT_NAME":"ONEWEB-0506","OBJECT_ID":"2022-138M","EPOCH":"2025-07-31T20:23:34.562112","MEAN_MOTION":13.19725261,"ECCENTRICITY":0.0002026,"INCLINATION":87.9235,"RA_OF_ASC_NODE":8.6202,"ARG_OF_PERICENTER":92.074,"MEAN_ANOMALY":268.0625,"EPHEMERIS_TYPE":0,"CLASSIFICATION_TYPE":"U","NORAD_CAT_ID":54124,"ELEMENT_SET_NO":999,"REV_AT_EPOCH":13542,"BSTAR":4.7073e-5,"MEAN_MOTION_DOT":3.2e-7,"MEAN_MOTION_DDOT":0},{"OBJECT_NAME":"ONEWEB-0507","OBJECT_ID":"2022-138N","EPOCH":"2025-07-31T22:42:17.752320","MEAN_MOTION":13.19723958,"ECCENTRICITY":0.0002013,"INCLINATION":87.9231,"RA_OF_ASC_NODE":8.6547,"ARG_OF_PERICENTER":88.9649,"MEAN_ANOMALY":271.1715,"EPHEMERIS_TYPE":0,"CLASSIFICATION_TYPE":"U","NORAD_CAT_ID":54125,"ELEMENT_SET_NO":999,"REV_AT_EPOCH":13461,"BSTAR":6.576e-5,"MEAN_MOTION_DOT":3.9e-7,"MEAN_MOTION_DDOT":0},{"OBJECT_NAME":"ONEWEB-0508","OBJECT_ID":"2022-138P","EPOCH":"2025-07-31T22:37:46.237728","MEAN_MOTION":13.19725312,"ECCENTRICITY":0.0002099,"INCLINATION":87.9234,"RA_OF_ASC_NODE":8.6381,"ARG_OF_PERICENTER":84.92,"MEAN_ANOMALY":275.2172,"EPHEMERIS_TYPE":0,"CLASSIFICATION_TYPE":"U","NORAD_CAT_ID":54126,"ELEMENT_SET_NO":999,"REV_AT_EPOCH":13459,"BSTAR":-4.9509e-6,"MEAN_MOTION_DOT":1.1e-7,"MEAN_MOTION_DDOT":0},{"OBJECT_NAME":"ONEWEB-0509","OBJECT_ID":"2022-138Q","EPOCH":"2025-07-31T20:12:11.565792","MEAN_MOTION":13.19725929,"ECCENTRICITY":0.0001965,"INCLINATION":87.9236,"RA_OF_ASC_NODE":8.6193,"ARG_OF_PERICENTER":92.4679,"MEAN_ANOMALY":267.6678,"EPHEMERIS_TYPE":0,"CLASSIFICATION_TYPE":"U","NORAD_CAT_ID":54127,"ELEMENT_SET_NO":999,"REV_AT_EPOCH":13455,"BSTAR":0.00010505,"MEAN_MOTION_DOT":5.5e-7,"MEAN_MOTION_DDOT":0},{"OBJECT_NAME":"ONEWEB-0510","OBJECT_ID":"2022-138R","EPOCH":"2025-07-31T21:46:51.206304","MEAN_MOTION":13.20772498,"ECCENTRICITY":0.0001528,"INCLINATION":87.9295,"RA_OF_ASC_NODE":338.2491,"ARG_OF_PERICENTER":113.3947,"MEAN_ANOMALY":246.7347,"EPHEMERIS_TYPE":0,"CLASSIFICATION_TYPE":"U","NORAD_CAT_ID":54128,"ELEMENT_SET_NO":999,"REV_AT_EPOCH":13700,"BSTAR":7.0633e-5,"MEAN_MOTION_DOT":4.2e-7,"MEAN_MOTION_DDOT":0},{"OBJECT_NAME":"ONEWEB-0511","OBJECT_ID":"2022-138S","EPOCH":"2025-07-31T20:07:39.080064","MEAN_MOTION":13.19726033,"ECCENTRICITY":0.0002045,"INCLINATION":87.9235,"RA_OF_ASC_NODE":8.6255,"ARG_OF_PERICENTER":101.5688,"MEAN_ANOMALY":258.5674,"EPHEMERIS_TYPE":0,"CLASSIFICATION_TYPE":"U","NORAD_CAT_ID":54129,"ELEMENT_SET_NO":999,"REV_AT_EPOCH":13458,"BSTAR":0.00010361,"MEAN_MOTION_DOT":5.4e-7,"MEAN_MOTION_DDOT":0},{"OBJECT_NAME":"ONEWEB-0512","OBJECT_ID":"2022-138T","EPOCH":"2025-07-31T23:34:37.699392","MEAN_MOTION":13.19725896,"ECCENTRICITY":0.0002273,"INCLINATION":87.9225,"RA_OF_ASC_NODE":8.6413,"ARG_OF_PERICENTER":91.5995,"MEAN_ANOMALY":268.5398,"EPHEMERIS_TYPE":0,"CLASSIFICATION_TYPE":"U","NORAD_CAT_ID":54130,"ELEMENT_SET_NO":999,"REV_AT_EPOCH":13544,"BSTAR":-0.00014972,"MEAN_MOTION_DOT":-4.7e-7,"MEAN_MOTION_DDOT":0},{"OBJECT_NAME":"ONEWEB-0513","OBJECT_ID":"2022-138U","EPOCH":"2025-07-31T21:29:57.535584","MEAN_MOTION":13.20265222,"ECCENTRICITY":0.0002334,"INCLINATION":87.9241,"RA_OF_ASC_NODE":8.6202,"ARG_OF_PERICENTER":92.9597,"MEAN_ANOMALY":267.1803,"EPHEMERIS_TYPE":0,"CLASSIFICATION_TYPE":"U","NORAD_CAT_ID":54131,"ELEMENT_SET_NO":999,"REV_AT_EPOCH":13445,"BSTAR":-0.00012215,"MEAN_MOTION_DOT":-3.6e-7,"MEAN_MOTION_DDOT":0},{"OBJECT_NAME":"ONEWEB-0514","OBJECT_ID":"2022-138V","EPOCH":"2025-07-31T23:57:22.340736","MEAN_MOTION":13.19721864,"ECCENTRICITY":0.0002331,"INCLINATION":87.9234,"RA_OF_ASC_NODE":8.6062,"ARG_OF_PERICENTER":85.2622,"MEAN_ANOMALY":274.8777,"EPHEMERIS_TYPE":0,"CLASSIFICATION_TYPE":"U","NORAD_CAT_ID":54132,"ELEMENT_SET_NO":999,"REV_AT_EPOCH":13546,"BSTAR":-0.0015069,"MEAN_MOTION_DOT":-5.9e-6,"MEAN_MOTION_DDOT":0},{"OBJECT_NAME":"ONEWEB-0515","OBJECT_ID":"2022-138W","EPOCH":"2025-07-31T21:28:40.216224","MEAN_MOTION":13.20771996,"ECCENTRICITY":9.8e-5,"INCLINATION":87.93,"RA_OF_ASC_NODE":338.2276,"ARG_OF_PERICENTER":91.3868,"MEAN_ANOMALY":268.7378,"EPHEMERIS_TYPE":0,"CLASSIFICATION_TYPE":"U","NORAD_CAT_ID":54133,"ELEMENT_SET_NO":999,"REV_AT_EPOCH":13789,"BSTAR":-0.00014986,"MEAN_MOTION_DOT":-4.8e-7,"MEAN_MOTION_DDOT":0},{"OBJECT_NAME":"ONEWEB-0516","OBJECT_ID":"2022-138X","EPOCH":"2025-07-31T21:31:47.794080","MEAN_MOTION":13.1972594,"ECCENTRICITY":0.0001882,"INCLINATION":87.9229,"RA_OF_ASC_NODE":8.6629,"ARG_OF_PERICENTER":89.8749,"MEAN_ANOMALY":270.26,"EPHEMERIS_TYPE":0,"CLASSIFICATION_TYPE":"U","NORAD_CAT_ID":54134,"ELEMENT_SET_NO":999,"REV_AT_EPOCH":13458,"BSTAR":-4.9273e-5,"MEAN_MOTION_DOT":-7.0e-8,"MEAN_MOTION_DDOT":0},{"OBJECT_NAME":"ONEWEB-0517","OBJECT_ID":"2022-138Y","EPOCH":"2025-07-31T21:02:13.792992","MEAN_MOTION":13.1972626,"ECCENTRICITY":0.0001981,"INCLINATION":87.9236,"RA_OF_ASC_NODE":8.6258,"ARG_OF_PERICENTER":102.8929,"MEAN_ANOMALY":257.2425,"EPHEMERIS_TYPE":0,"CLASSIFICATION_TYPE":"U","NORAD_CAT_ID":54135,"ELEMENT_SET_NO":999,"REV_AT_EPOCH":13458,"BSTAR":-4.2847e-5,"MEAN_MOTION_DOT":-4.0e-8,"MEAN_MOTION_DDOT":0},{"OBJECT_NAME":"ONEWEB-0518","OBJECT_ID":"2022-138Z","EPOCH":"2025-07-31T21:29:32.240256","MEAN_MOTION":13.19725377,"ECCENTRICITY":0.0001995,"INCLINATION":87.9232,"RA_OF_ASC_NODE":8.6594,"ARG_OF_PERICENTER":91.0887,"MEAN_ANOMALY":269.0474,"EPHEMERIS_TYPE":0,"CLASSIFICATION_TYPE":"U","NORAD_CAT_ID":54136,"ELEMENT_SET_NO":999,"REV_AT_EPOCH":13458,"BSTAR":-2.1897e-5,"MEAN_MOTION_DOT":4.0e-8,"MEAN_MOTION_DDOT":0},{"OBJECT_NAME":"ONEWEB-0519","OBJECT_ID":"2022-138AA","EPOCH":"2025-07-31T20:16:44.460192","MEAN_MOTION":13.19726118,"ECCENTRICITY":0.0002001,"INCLINATION":87.9236,"RA_OF_ASC_NODE":8.6242,"ARG_OF_PERICENTER":100.4591,"MEAN_ANOMALY":259.6768,"EPHEMERIS_TYPE":0,"CLASSIFICATION_TYPE":"U","NORAD_CAT_ID":54137,"ELEMENT_SET_NO":999,"REV_AT_EPOCH":13458,"BSTAR":0.00015519,"MEAN_MOTION_DOT":7.5e-7,"MEAN_MOTION_DDOT":0},{"OBJECT_NAME":"ONEWEB-0520","OBJECT_ID":"2022-138AB","EPOCH":"2025-08-01T04:23:29.158368","MEAN_MOTION":13.1972524,"ECCENTRICITY":0.0002096,"INCLINATION":87.9236,"RA_OF_ASC_NODE":8.561,"ARG_OF_PERICENTER":87.2017,"MEAN_ANOMALY":272.9355,"EPHEMERIS_TYPE":0,"CLASSIFICATION_TYPE":"U","NORAD_CAT_ID":54138,"ELEMENT_SET_NO":999,"REV_AT_EPOCH":13548,"BSTAR":5.4e-5,"MEAN_MOTION_DOT":3.5e-7,"MEAN_MOTION_DDOT":0},{"OBJECT_NAME":"ONEWEB-0521","OBJECT_ID":"2022-138AC","EPOCH":"2025-08-01T05:11:14.284320","MEAN_MOTION":13.19726716,"ECCENTRICITY":0.0001839,"INCLINATION":87.9234,"RA_OF_ASC_NODE":8.5411,"ARG_OF_PERICENTER":103.1736,"MEAN_ANOMALY":256.9602,"EPHEMERIS_TYPE":0,"CLASSIFICATION_TYPE":"U","NORAD_CAT_ID":54139,"ELEMENT_SET_NO":999,"REV_AT_EPOCH":13546,"BSTAR":0.00012402,"MEAN_MOTION_DOT":6.3e-7,"MEAN_MOTION_DDOT":0},{"OBJECT_NAME":"ONEWEB-0522","OBJECT_ID":"2022-138AD","EPOCH":"2025-07-31T21:24:57.782880","MEAN_MOTION":13.1972516,"ECCENTRICITY":0.0001854,"INCLINATION":87.9234,"RA_OF_ASC_NODE":8.6066,"ARG_OF_PERICENTER":91.7354,"MEAN_ANOMALY":268.3991,"EPHEMERIS_TYPE":0,"CLASSIFICATION_TYPE":"U","NORAD_CAT_ID":54140,"ELEMENT_SET_NO":999,"REV_AT_EPOCH":13456,"BSTAR":-0.00048608,"MEAN_MOTION_DOT":-1.82e-6,"MEAN_MOTION_DDOT":0},{"OBJECT_NAME":"ONEWEB-0523","OBJECT_ID":"2022-138AE","EPOCH":"2025-07-31T21:10:30.160128","MEAN_MOTION":13.20771135,"ECCENTRICITY":0.0001278,"INCLINATION":87.9294,"RA_OF_ASC_NODE":338.2597,"ARG_OF_PERICENTER":121.3313,"MEAN_ANOMALY":238.7946,"EPHEMERIS_TYPE":0,"CLASSIFICATION_TYPE":"U","NORAD_CAT_ID":54141,"ELEMENT_SET_NO":999,"REV_AT_EPOCH":13702,"BSTAR":-5.978e-5,"MEAN_MOTION_DOT":-1.1e-7,"MEAN_MOTION_DDOT":0},{"OBJECT_NAME":"ONEWEB-0524","OBJECT_ID":"2022-138AF","EPOCH":"2025-07-31T20:54:35.201664","MEAN_MOTION":13.20770266,"ECCENTRICITY":0.0001159,"INCLINATION":87.929,"RA_OF_ASC_NODE":338.2632,"ARG_OF_PERICENTER":76.0622,"MEAN_ANOMALY":284.064,"EPHEMERIS_TYPE":0,"CLASSIFICATION_TYPE":"U","NORAD_CAT_ID":54142,"ELEMENT_SET_NO":999,"REV_AT_EPOCH":13702,"BSTAR":-0.00012229,"MEAN_MOTION_DOT":-3.7e-7,"MEAN_MOTION_DDOT":0},{"OBJECT_NAME":"ONEWEB-0525","OBJECT_ID":"2022-138AG","EPOCH":"2025-07-31T21:52:15.770496","MEAN_MOTION":13.19725248,"ECCENTRICITY":0.0002093,"INCLINATION":87.9236,"RA_OF_ASC_NODE":8.6229,"ARG_OF_PERICENTER":89.1271,"MEAN_ANOMALY":271.0101,"EPHEMERIS_TYPE":0,"CLASSIFICATION_TYPE":"U","NORAD_CAT_ID":54143,"ELEMENT_SET_NO":999,"REV_AT_EPOCH":13458,"BSTAR":-0.00027665,"MEAN_MOTION_DOT":-9.8e-7,"MEAN_MOTION_DDOT":0},{"OBJECT_NAME":"ONEWEB-0526","OBJECT_ID":"2022-138AH","EPOCH":"2025-07-31T22:40:02.857728","MEAN_MOTION":13.19725419,"ECCENTRICITY":0.0001895,"INCLINATION":87.9234,"RA_OF_ASC_NODE":8.6041,"ARG_OF_PERICENTER":91.8462,"MEAN_ANOMALY":268.2888,"EPHEMERIS_TYPE":0,"CLASSIFICATION_TYPE":"U","NORAD_CAT_ID":54144,"ELEMENT_SET_NO":999,"REV_AT_EPOCH":13456,"BSTAR":-2.9606e-5,"MEAN_MOTION_DOT":1.0e-8,"MEAN_MOTION_DDOT":0}]
